[{"name": "Abkhazian", "nativeName": "ĞÒ§ÑÑƒĞ°", "isoCode": "ab"}, {"name": "Afar", "nativeName": "Qafar af", "isoCode": "aa"}, {"name": "Afrikaans", "nativeName": "Afrikaans", "isoCode": "af"}, {"name": "Akan", "nativeName": "ÃkÃ¡n", "isoCode": "ak"}, {"name": "Albanian", "nativeName": "Shqip", "isoCode": "sq"}, {"name": "Amharic", "nativeName": "áŠ áˆ›áˆ­áŠ›", "isoCode": "am"}, {"name": "Arabic", "nativeName": "Ø§ÙÙ„Ù’Ø¹ÙØ±ÙØ¨ÙÙŠÙÙ‘Ø©Ù", "isoCode": "ar"}, {"name": "Aragonese", "nativeName": "AragonÃ©s", "isoCode": "an"}, {"name": "Armenian", "nativeName": "Õ€Õ¡ÕµÕ¥Ö€Õ¥Õ¶", "isoCode": "hy"}, {"name": "Assamese", "nativeName": "à¦…à¦¸à¦®à§€à¦¯à¦¼à¦¾", "isoCode": "as"}, {"name": "Avaric", "nativeName": "ĞĞ²Ğ°Ñ€Â Ğ¼Ğ°Ñ†Ó", "isoCode": "av"}, {"name": "Avestan", "nativeName": "UpastawakaÄ“na", "isoCode": "ae"}, {"name": "Aymara", "nativeName": "Aymara", "isoCode": "ay"}, {"name": "Azerbaijani", "nativeName": "AzÉ™rbaycanÂ dili", "isoCode": "az"}, {"name": "Bambara", "nativeName": "Ø¨ÙÙ…ÙÙ†ÙÙ†ÙƒÙÙ† ", "isoCode": "bm"}, {"name": "Bashkir", "nativeName": "Ğ‘Ğ°ÑˆÒ¡Ğ¾Ñ€Ñ‚ Ñ‚ĞµĞ»Ğµ", "isoCode": "ba"}, {"name": "Basque", "nativeName": "Euskara/Euskera", "isoCode": "eu"}, {"name": "Belarusian", "nativeName": "Ğ‘ĞµĞ»Ğ°Ñ€ÑƒÑĞºĞ°Ñ Ğ¼Ğ¾Ğ²Ğ°", "isoCode": "be"}, {"name": "Bengali", "nativeName": "à¦¬à¦¾à¦‚à¦²à¦¾", "isoCode": "bn"}, {"name": "Bislama", "nativeName": "Bislama", "isoCode": "bi"}, {"name": "Bosnian", "nativeName": "Ğ‘Ğ¾ÑĞ°Ğ½ÑĞºĞ¸", "isoCode": "bs"}, {"name": "Breton", "nativeName": "Brezhoneg", "isoCode": "br"}, {"name": "Bulgarian", "nativeName": "Ğ‘ÑŠĞ»Ğ³Ğ°Ñ€ÑĞºĞ¸", "isoCode": "bg"}, {"name": "Burmese", "nativeName": "á€™á€¼á€”á€ºá€™á€¬á€…á€¬", "isoCode": "my"}, {"name": "Catalan", "nativeName": "CatalÃ ", "isoCode": "ca"}, {"name": "Chamorro", "nativeName": "Finu' Chamoru", "isoCode": "ch"}, {"name": "Chechen", "nativeName": "ĞĞ¾Ñ…Ñ‡Ğ¸Ğ¹Ğ½ Ğ¼Ğ¾Ñ‚Ñ‚", "isoCode": "ce"}, {"name": "Chichewa", "nativeName": "Chichewa", "isoCode": "ny"}, {"name": "Chinese", "nativeName": "ä¸­æ–‡\næ±‰è¯­", "isoCode": "zh"}, {"name": "ChurchÂ Slavonic", "nativeName": "Ğ¡Ğ»Ğ°Ğ²ĞµÌĞ½ÑĞºÑ—Ğ¹ Ñ§Ò†Ğ·Ñ‹ÌĞºÑŠ", "isoCode": "cu"}, {"name": "Chuvash", "nativeName": "Ğ§Ó‘Ğ²Ğ°ÑˆĞ»Ğ°", "isoCode": "cv"}, {"name": "Cornish", "nativeName": "Kernowek", "isoCode": "kw"}, {"name": "Corsican", "nativeName": "Corsu", "isoCode": "co"}, {"name": "Cree", "nativeName": "á“€á¦áƒá”­áá§áƒá§á£", "isoCode": "cr"}, {"name": "Croatian", "nativeName": "Hrvatski", "isoCode": "hr"}, {"name": "Czech", "nativeName": "ÄŒeÅ¡tina", "isoCode": "cs"}, {"name": "Danish", "nativeName": "Dansk", "isoCode": "da"}, {"name": "Divehi", "nativeName": "Ş‹Ş¨ŞˆŞ¬Ş€Ş¨", "isoCode": "dv"}, {"name": "Dutch", "nativeName": "Nederlands", "isoCode": "nl"}, {"name": "Dzongkha", "nativeName": "à½¢à¾«à½¼à½„à¼‹à½à¼‹", "isoCode": "dz"}, {"name": "English", "nativeName": "English", "isoCode": "en"}, {"name": "British English", "nativeName": "", "isoCode": "en-gb"}, {"name": "Esperanto", "nativeName": "Esperanto", "isoCode": "eo"}, {"name": "Estonian", "nativeName": "Eesti keel", "isoCode": "et"}, {"name": "Ewe", "nativeName": "ÃˆÊ‹egbe", "isoCode": "ee"}, {"name": "Faroese", "nativeName": "FÃ¸royskt", "isoCode": "fo"}, {"name": "Fijian", "nativeName": "Na Vosa Vakaviti", "isoCode": "fj"}, {"name": "Finnish", "nativeName": "Suomi", "isoCode": "fi"}, {"name": "French", "nativeName": "FranÃ§ais", "isoCode": "fr"}, {"name": "Western Frisian", "nativeName": "Frysk", "isoCode": "fy"}, {"name": "Fulah", "nativeName": "ğ¤Šğ¤µğ¤¤ğ¤¬ğ¤µğ¤¤ğ¤£ğ¤«Â ", "isoCode": "ff"}, {"name": "Gaelic", "nativeName": "GÃ idhlig", "isoCode": "gd"}, {"name": "Galician", "nativeName": "Galego", "isoCode": "gl"}, {"name": "Ganda", "nativeName": "Luganda", "isoCode": "lg"}, {"name": "Georgian", "nativeName": "áƒ¥áƒáƒ áƒ—áƒ£áƒšáƒ˜", "isoCode": "ka"}, {"name": "German", "nativeName": "Deutsch", "isoCode": "de"}, {"name": "Greek", "nativeName": "ÎÎ­Î±Â Î•Î»Î»Î·Î½Î¹ÎºÎ¬", "isoCode": "el"}, {"name": "Kalaallisut", "nativeName": "Kalaallisut", "isoCode": "kl"}, {"name": "Guarani", "nativeName": "AvaÃ±e'áº½", "isoCode": "gn"}, {"name": "Gujarati", "nativeName": "àª—à«àªœàª°àª¾àª¤à«€", "isoCode": "gu"}, {"name": "Haitian", "nativeName": "KreyÃ²l ayisyen", "isoCode": "ht"}, {"name": "Hausa", "nativeName": "Ù‡ÙØ±Ù’Ø´ÙœÙ† Ù‡ÙÙˆÙ’Ø³", "isoCode": "ha"}, {"name": "Hebrew", "nativeName": "×¢×‘×¨×™×ªâ€", "isoCode": "he"}, {"name": "Herero", "nativeName": "Otjiherero", "isoCode": "hz"}, {"name": "Hindi", "nativeName": "à¤¹à¤¿à¤¨à¥à¤¦à¥€", "isoCode": "hi"}, {"name": "Hiri Motu", "nativeName": "Hiri Motu", "isoCode": "ho"}, {"name": "Hungarian", "nativeName": "Magyar nyelv", "isoCode": "hu"}, {"name": "Icelandic", "nativeName": "Ãslenska", "isoCode": "is"}, {"name": "Ido", "nativeName": "Ido", "isoCode": "io"}, {"name": "Igbo", "nativeName": "Ã¡sá»¥Ì€sá»¥Ì ÃŒgbÃ²", "isoCode": "ig"}, {"name": "Indonesian", "nativeName": "bahasa Indonesia", "isoCode": "id"}, {"name": "Interlingua", "nativeName": "Interlingua", "isoCode": "ia"}, {"name": "Interlingue", "nativeName": "Interlingue", "isoCode": "ie"}, {"name": "Inuktitut", "nativeName": "áƒá“„á’ƒá‘á‘á‘¦", "isoCode": "iu"}, {"name": "Inupiaq", "nativeName": "IÃ±upiaq", "isoCode": "ik"}, {"name": "Irish", "nativeName": "Gaeilge", "isoCode": "ga"}, {"name": "Italian", "nativeName": "Italiano", "isoCode": "it"}, {"name": "Japanese", "nativeName": "æ—¥æœ¬èª", "isoCode": "ja"}, {"name": "Javanese", "nativeName": "ê¦§ê¦±ê¦—ê¦®", "isoCode": "jv"}, {"name": "Kannada", "nativeName": "à²•à²¨à³à²¨à²¡", "isoCode": "kn"}, {"name": "Kanuri", "nativeName": "ÙƒÙÙ†ÙØ±ÙÙŠÙÙ‡", "isoCode": "kr"}, {"name": "Kashmiri", "nativeName": "à¤•à¥‰à¤¶à¥à¤°", "isoCode": "ks"}, {"name": "Kazakh", "nativeName": "ÒšĞ°Ğ·Ğ°Ò›ÑˆĞ°", "isoCode": "kk"}, {"name": "Central Khmer", "nativeName": "ááŸá˜ášá—á¶áŸá¶", "isoCode": "km"}, {"name": "Kikuyu", "nativeName": "GÄ©gÄ©kÅ©yÅ©", "isoCode": "ki"}, {"name": "Kinyarwanda", "nativeName": "Ikinyarwanda", "isoCode": "rw"}, {"name": "Kyrgyz", "nativeName": "ĞšÑ‹Ñ€Ğ³Ñ‹Ğ·", "isoCode": "ky"}, {"name": "Komi", "nativeName": "ĞšĞ¾Ğ¼Ğ¸ ĞºÑ‹Ğ²", "isoCode": "kv"}, {"name": "Kongo", "nativeName": "Kikongo", "isoCode": "kg"}, {"name": "Korean", "nativeName": "í•œêµ­ì–´\nì¡°ì„ ë§", "isoCode": "ko"}, {"name": "Kuanyama", "nativeName": "Oshikwanyama", "isoCode": "kj"}, {"name": "Kurdish", "nativeName": "Ú©ÙˆØ±Ø¯ÛŒ", "isoCode": "ku"}, {"name": "Lao", "nativeName": "àºàº²àºªàº²àº¥àº²àº§", "isoCode": "lo"}, {"name": "Latin", "nativeName": "Latinum", "isoCode": "la"}, {"name": "Latvian", "nativeName": "Latviski", "isoCode": "lv"}, {"name": "Limburgan", "nativeName": "LÃ¨mburgs", "isoCode": "li"}, {"name": "Lingala", "nativeName": "LingÃ¡la", "isoCode": "ln"}, {"name": "Lithuanian", "nativeName": "LietuviÅ³", "isoCode": "lt"}, {"name": "Luba-Katanga", "nativeName": "Kiluba", "isoCode": "lu"}, {"name": "Luxembourgish", "nativeName": "LÃ«tzebuergesch", "isoCode": "lb"}, {"name": "Macedonian", "nativeName": "ĞœĞ°ĞºĞµĞ´Ğ¾Ğ½ÑĞºĞ¸", "isoCode": "mk"}, {"name": "Malagasy", "nativeName": "Ù…ÙÙ„ÙØºÙØ³Ù", "isoCode": "mg"}, {"name": "Malay", "nativeName": "Ø¨Ù‡Ø§Ø³Â Ù…Ù„Ø§ÙŠÙˆ", "isoCode": "ms"}, {"name": "Malayalam", "nativeName": "à´®à´²à´¯à´¾à´³à´‚", "isoCode": "ml"}, {"name": "Maltese", "nativeName": "Malti", "isoCode": "mt"}, {"name": "Manx", "nativeName": "Gaelg", "isoCode": "gv"}, {"name": "Maori", "nativeName": "reo MÄori", "isoCode": "mi"}, {"name": "Marathi", "nativeName": "à¤®à¤°à¤¾à¤ à¥€", "isoCode": "mr"}, {"name": "Marshallese", "nativeName": "kajin MÌ§ajelâ€ŒÌ§", "isoCode": "mh"}, {"name": "Mongolian", "nativeName": "á ®á £á ©á ­á £á ¯á ¬á ¡á ¯á ¡", "isoCode": "mn"}, {"name": "Nauru", "nativeName": "dorerin Naoe", "isoCode": "na"}, {"name": "Navajo", "nativeName": "DinÃ©Â bizaad", "isoCode": "nv"}, {"name": "North Ndebele", "nativeName": "isiNdebele", "isoCode": "nd"}, {"name": "South Ndebele", "nativeName": "isiNdebele", "isoCode": "nr"}, {"name": "Ndonga", "nativeName": "Ndonga", "isoCode": "ng"}, {"name": "Nepali", "nativeName": "à¤¨à¥‡à¤ªà¤¾à¤²à¥€ à¤­à¤¾à¤·à¤¾", "isoCode": "ne"}, {"name": "Norwegian", "nativeName": "Norsk", "isoCode": "no"}, {"name": "Norwegian BokmÃ¥l", "nativeName": "Norsk BokmÃ¥l", "isoCode": "nb"}, {"name": "Norwegian Nynorsk", "nativeName": "Norsk Nynorsk", "isoCode": "nn"}, {"name": "Occitan", "nativeName": "Occitan", "isoCode": "oc"}, {"name": "Ojibwa", "nativeName": "áŠá“‚á”‘á“ˆá¯á’§áá“", "isoCode": "oj"}, {"name": "Oriya", "nativeName": "à¬“à¬¡à¬¼à¬¿à¬†", "isoCode": "or"}, {"name": "Oromo", "nativeName": "afaan Oromoo", "isoCode": "om"}, {"name": "Ossetian", "nativeName": "Ğ´Ğ¸Ğ³Ğ¾Ñ€Ğ¾Ğ½Â Ó”Ğ²Ğ·Ğ°Ğ³", "isoCode": "os"}, {"name": "Pali", "nativeName": "PÄli", "isoCode": "pi"}, {"name": "Pashto", "nativeName": "Ù¾ÚšØªÙˆ", "isoCode": "ps"}, {"name": "Persian", "nativeName": "ÙØ§Ø±Ø³ÛŒ", "isoCode": "fa"}, {"name": "Polish", "nativeName": "Polski", "isoCode": "pl"}, {"name": "Portuguese", "nativeName": "PortuguÃªs", "isoCode": "pt"}, {"name": "Punjabi", "nativeName": "à¨ªà©°à¨œà¨¾à¨¬à©€", "isoCode": "pa"}, {"name": "Quechua", "nativeName": "RunaÂ simi", "isoCode": "qu"}, {"name": "Romanian", "nativeName": "RomÃ¢nÄƒ", "isoCode": "ro"}, {"name": "Romansh", "nativeName": "Rumantsch", "isoCode": "rm"}, {"name": "Rundi", "nativeName": "Ikirundi", "isoCode": "rn"}, {"name": "Russian", "nativeName": "Ğ ÑƒÑÑĞºĞ¸Ğ¹Â ÑĞ·Ñ‹Ğº", "isoCode": "ru"}, {"name": "Northern Sami", "nativeName": "DavvisÃ¡megiella", "isoCode": "se"}, {"name": "Samoan", "nativeName": "gagana SÄmoa", "isoCode": "sm"}, {"name": "Sango", "nativeName": "yÃ¢ngÃ¢ tÃ® SÃ¤ngÃ¶", "isoCode": "sg"}, {"name": "Sanskrit", "nativeName": "à¤¸à¤‚à¤¸à¥à¤•à¥ƒà¤¤à¤®à¥", "isoCode": "sa"}, {"name": "Sardinian", "nativeName": "Sardu", "isoCode": "sc"}, {"name": "Serbian", "nativeName": "Ğ¡Ñ€Ğ¿ÑĞºĞ¸", "isoCode": "sr"}, {"name": "Shona", "nativeName": "chiShona", "isoCode": "sn"}, {"name": "Sindhi", "nativeName": "Ø³Ù†ÚŒÙŠ", "isoCode": "sd"}, {"name": "Sinhala", "nativeName": "à·ƒà·’à¶‚à·„à¶½", "isoCode": "si"}, {"name": "Slovak", "nativeName": "SlovenÄina", "isoCode": "sk"}, {"name": "Slovenian", "nativeName": "SlovenÅ¡Äina", "isoCode": "sl"}, {"name": "Somali", "nativeName": "Soomaali", "isoCode": "so"}, {"name": "Southern Sotho", "nativeName": "Sesotho", "isoCode": "st"}, {"name": "Spanish", "nativeName": "EspaÃ±ol", "isoCode": "es"}, {"name": "Sundanese", "nativeName": "basa Sunda", "isoCode": "su"}, {"name": "Swahili", "nativeName": "Kiswahili", "isoCode": "sw"}, {"name": "Swati", "nativeName": "siSwati", "isoCode": "ss"}, {"name": "Swedish", "nativeName": "Svenska", "isoCode": "sv"}, {"name": "Tagalog", "nativeName": "Wikang Tagalog", "isoCode": "tl"}, {"name": "Tahitian", "nativeName": "reo Tahiti", "isoCode": "ty"}, {"name": "Tajik", "nativeName": "Ğ¢Ğ¾Ò·Ğ¸ĞºÓ£", "isoCode": "tg"}, {"name": "Tamil", "nativeName": "à®¤à®®à®¿à®´à¯", "isoCode": "ta"}, {"name": "Tatar", "nativeName": "Ğ¢Ğ°Ñ‚Ğ°Ñ€ Ñ‚ĞµĞ»Ğµ", "isoCode": "tt"}, {"name": "Telugu", "nativeName": "à°¤à±†à°²à±à°—à±", "isoCode": "te"}, {"name": "Thai", "nativeName": "à¸ à¸²à¸©à¸²à¹„à¸—à¸¢", "isoCode": "th"}, {"name": "Tibetan", "nativeName": "à½–à½¼à½‘à¼‹à½¦à¾à½‘à¼‹", "isoCode": "bo"}, {"name": "Tigrinya", "nativeName": "á‰µáŒáˆ­áŠ›", "isoCode": "ti"}, {"name": "Tonga", "nativeName": "lea faka-Tonga", "isoCode": "to"}, {"name": "Tsonga", "nativeName": "Xitsonga", "isoCode": "ts"}, {"name": "Tswana", "nativeName": "Setswana", "isoCode": "tn"}, {"name": "Turkish", "nativeName": "TÃ¼rkÃ§e", "isoCode": "tr"}, {"name": "Turkmen", "nativeName": "TÃ¼rkmenÃ§e", "isoCode": "tk"}, {"name": "Twi", "nativeName": "Twi", "isoCode": "tw"}, {"name": "Uighur", "nativeName": "Ø¦Û‡ÙŠØºÛ‡Ø± ØªÙ‰Ù„Ù‰", "isoCode": "ug"}, {"name": "Ukrainian", "nativeName": "Ğ£ĞºÑ€Ğ°Ñ—Ğ½ÑÑŒĞºĞ°", "isoCode": "uk"}, {"name": "Urdu", "nativeName": "Ø§ÙØ±Ø¯ÙÙˆ", "isoCode": "ur"}, {"name": "Uzbek", "nativeName": "Ã“zbekÃ§a", "isoCode": "uz"}, {"name": "Venda", "nativeName": "Tshivená¸“a", "isoCode": "ve"}, {"name": "Vietnamese", "nativeName": "tiáº¿ng Viá»‡t", "isoCode": "vi"}, {"name": "VolapÃ¼k", "nativeName": "VolapÃ¼k", "isoCode": "vo"}, {"name": "Walloon", "nativeName": "Walon", "isoCode": "wa"}, {"name": "Welsh", "nativeName": "Cymraeg", "isoCode": "cy"}, {"name": "Wolof", "nativeName": "Ùˆà£·Ù„à£·ÙÙ’", "isoCode": "wo"}, {"name": "Xhosa", "nativeName": "isiXhosa", "isoCode": "xh"}, {"name": "Sichuan Yi", "nativeName": "ê†ˆêŒ ê‰™", "isoCode": "ii"}, {"name": "Yiddish", "nativeName": "×™×™Ö´×“×™×©", "isoCode": "yi"}, {"name": "Yoruba", "nativeName": "Ã¨dÃ¨ YorÃ¹bÃ¡", "isoCode": "yo"}, {"name": "Zhuang", "nativeName": "è©±åƒ®", "isoCode": "za"}, {"name": "Zulu", "nativeName": "isiZulu", "isoCode": "zu"}]